[{"OBJECT_NAME":"STARLINK-33653","OBJECT_ID":"2025-063T","EPOCH":"2026-03-09T23:27:59.953536","MEAN_MOTION":15.30212451,"ECCENTRICITY":0.00014102,"INCLINATION":53.1601,"RA_OF_ASC_NODE":51.1162,"ARG_OF_PERICENTER":97.2957,"MEAN_ANOMALY":262.8204,"EPHEMERIS_TYPE":0,"CLASSIFICATION_TYPE":"U","NORAD_CAT_ID":63380,"ELEMENT_SET_NO":999,"REV_AT_EPOCH":5475,"BSTAR":0.0012337874,"MEAN_MOTION_DOT":0.00036375,"MEAN_MOTION_DDOT":0},{"OBJECT_NAME":"KUIPER-00175","OBJECT_ID":"2025-301C","EPOCH":"2026-03-09T23:30:37.840032","MEAN_MOTION":15.30996371,"ECCENTRICITY":0.00022792,"INCLINATION":51.8781,"RA_OF_ASC_NODE":63.6978,"ARG_OF_PERICENTER":50.5695,"MEAN_ANOMALY":309.549,"EPHEMERIS_TYPE":0,"CLASSIFICATION_TYPE":"U","NORAD_CAT_ID":67135,"ELEMENT_SET_NO":999,"REV_AT_EPOCH":1385,"BSTAR":0.00066732304,"MEAN_MOTION_DOT":0.00019968,"MEAN_MOTION_DDOT":0}]
